$$SOE
2459580.500000000, A.D. 2022-Jan-01 00:00:00.0000, 5.032792704042414E+07, -4.236841681651598E+08, -1.905548798555255E+06,
2459587.500000000, A.D. 2022-Jan-08 00:00:00.0000, 6.128343446023282E+07, -4.233639035668110E+08, -2.609854806340158E+06,
2459594.500000000, A.D. 2022-Jan-15 00:00:00.0000, 7.220098279791787E+07, -4.227810874327157E+08, -3.312543678334266E+06,
2459601.500000000, A.D. 2022-Jan-22 00:00:00.0000, 8.307416095798892E+07, -4.219381473662099E+08, -4.013196220341891E+06,
2459608.500000000, A.D. 2022-Jan-29 00:00:00.0000, 9.389669231601834E+07, -4.208376618515635E+08, -4.711401242589206E+06,
2459615.500000000, A.D. 2022-Feb-05 00:00:00.0000, 1.046624352829818E+08, -4.194823537283397E+08, -5.406755612394691E+06,
2459622.500000000, A.D. 2022-Feb-12 00:00:00.0000, 1.153653856706259E+08, -4.178750847917780E+08, -6.098864567936093E+06,
2459629.500000000, A.D. 2022-Feb-19 00:00:00.0000, 1.259996795477425E+08, -4.160188491689094E+08, -6.787341978816688E+06,
2459636.500000000, A.D. 2022-Feb-26 00:00:00.0000, 1.365595952905340E+08, -4.139167662100882E+08, -7.471810493187696E+06,
2459643.500000000, A.D. 2022-Mar-05 00:00:00.0000, 1.470395550012365E+08, -4.115720735275263E+08, -8.151901637652129E+06,
2459650.500000000, A.D. 2022-Mar-12 00:00:00.0000, 1.574341255320745E+08, -4.089881202597111E+08, -8.827255896964043E+06,
2459657.500000000, A.D. 2022-Mar-19 00:00:00.0000, 1.677380192010078E+08, -4.061683605451732E+08, -9.497522779059380E+06,
2459664.500000000, A.D. 2022-Mar-26 00:00:00.0000, 1.779460942373423E+08, -4.031163472212992E+08, -1.016236086926895E+07,
2459671.500000000, A.D. 2022-Apr-02 00:00:00.0000, 1.880533550412992E+08, -3.998357258125196E+08, -1.082143788580552E+07,
2459678.500000000, A.D. 2022-Apr-09 00:00:00.0000, 1.980549525463473E+08, -3.963302288112255E+08, -1.147443076229116E+07,
2459685.500000000, A.D. 2022-Apr-16 00:00:00.0000, 2.079461850577475E+08, -3.926036696055316E+08, -1.212102573772886E+07,
2459692.500000000, A.D. 2022-Apr-23 00:00:00.0000, 2.177224983133522E+08, -3.886599349768340E+08, -1.276091824993953E+07,
2459699.500000000, A.D. 2022-Apr-30 00:00:00.0000, 2.273794829097922E+08, -3.845029784169134E+08, -1.339381264543363E+07,
2459706.500000000, A.D. 2022-May-07 00:00:00.0000, 2.369128721698308E+08, -3.801368162397525E+08, -1.401942214894944E+07,
2459713.500000000, A.D. 2022-May-14 00:00:00.0000, 2.463185418539922E+08, -3.755655234508464E+08, -1.463746897274894E+07,
2459720.500000000, A.D. 2022-May-21 00:00:00.0000, 2.555925096992159E+08, -3.707932286157076E+08, -1.524768431821373E+07,
2459727.500000000, A.D. 2022-May-28 00:00:00.0000, 2.647309343199792E+08, -3.658241086858704E+08, -1.584980830503307E+07,
2459734.500000000, A.D. 2022-Jun-04 00:00:00.0000, 2.737301137638882E+08, -3.606623840950184E+08, -1.644358987984546E+07,
2459741.500000000, A.D. 2022-Jun-11 00:00:00.0000, 2.825864838809603E+08, -3.553123141237741E+08, -1.702878671826704E+07,
2459748.500000000, A.D. 2022-Jun-18 00:00:00.0000, 2.912966165583085E+08, -3.497781925207237E+08, -1.760516512354553E+07,
2459755.500000000, A.D. 2022-Jun-25 00:00:00.0000, 2.998572178608789E+08, -3.440643434125448E+08, -1.817249992795585E+07,
2459762.500000000, A.D. 2022-Jul-02 00:00:00.0000, 3.082651262225488E+08, -3.381751175669007E+08, -1.873057441524842E+07,
2459769.500000000, A.D. 2022-Jul-09 00:00:00.0000, 3.165173110883018E+08, -3.321148888281702E+08, -1.927918028603782E+07,
2459776.500000000, A.D. 2022-Jul-16 00:00:00.0000, 3.246108719628224E+08, -3.258880496407901E+08, -1.981811757303903E+07,
2459783.500000000, A.D. 2022-Jul-23 00:00:00.0000, 3.325430356762173E+08, -3.194990055803444E+08, -2.034719429854950E+07,
2459790.500000000, A.D. 2022-Jul-30 00:00:00.0000, 3.403111519580165E+08, -3.129521722423565E+08, -2.086622615634061E+07,
2459797.500000000, A.D. 2022-Aug-06 00:00:00.0000, 3.479126909252655E+08, -3.062519738349925E+08, -2.137503649539560E+07,
2459804.500000000, A.D. 2022-Aug-13 00:00:00.0000, 3.553452416694650E+08, -2.994028407161998E+08, -2.187345630508584E+07,
2459811.500000000, A.D. 2022-Aug-20 00:00:00.0000, 3.626065103806070E+08, -2.924092063741500E+08, -2.236132409912129E+07,
2459818.500000000, A.D. 2022-Aug-27 00:00:00.0000, 3.696943180834723E+08, -2.852755045727181E+08, -2.283848576405802E+07,
2459825.500000000, A.D. 2022-Sep-03 00:00:00.0000, 3.766065982409405E+08, -2.780061667675818E+08, -2.330479440435325E+07,
2459832.500000000, A.D. 2022-Sep-10 00:00:00.0000, 3.833413943210590E+08, -2.706056197643111E+08, -2.376011019057372E+07,
2459839.500000000, A.D. 2022-Sep-17 00:00:00.0000, 3.898968573634327E+08, -2.630782836158224E+08, -2.420430021399060E+07,
2459846.500000000, A.D. 2022-Sep-24 00:00:00.0000, 3.962712436105968E+08, -2.554285698057683E+08, -2.463723835772741E+07,
2459853.500000000, A.D. 2022-Oct-01 00:00:00.0000, 4.024629124487600E+08, -2.476608797353446E+08, -2.505880520880657E+07,
2459860.500000000, A.D. 2022-Oct-08 00:00:00.0000, 4.084703250698407E+08, -2.397796029862441E+08, -2.546888800628836E+07,
2459867.500000000, A.D. 2022-Oct-15 00:00:00.0000, 4.142920429283162E+08, -2.317891141563590E+08, -2.586738044253968E+07,
2459874.500000000, A.D. 2022-Oct-22 00:00:00.0000, 4.199267238154739E+08, -2.236937699489956E+08, -2.625418225568172E+07,
2459881.500000000, A.D. 2022-Oct-29 00:00:00.0000, 4.253731180507039E+08, -2.154979091046460E+08, -2.662919905480409E+07,
2459888.500000000, A.D. 2022-Nov-05 00:00:00.0000, 4.306300668911304E+08, -2.072058524284166E+08, -2.699234234694539E+07,
2459895.500000000, A.D. 2022-Nov-12 00:00:00.0000, 4.356965011978468E+08, -1.988219016408454E+08, -2.734352948245214E+07,
2459902.500000000, A.D. 2022-Nov-19 00:00:00.0000, 4.405714396422723E+08, -1.903503380018116E+08, -2.768268353105874E+07,
2459909.500000000, A.D. 2022-Nov-26 00:00:00.0000, 4.452539867172407E+08, -1.817954211004988E+08, -2.800973314551222E+07,
2459916.500000000, A.D. 2022-Dec-03 00:00:00.0000, 4.497433307210047E+08, -1.731613878185872E+08, -2.832461242915312E+07,
2459923.500000000, A.D. 2022-Dec-10 00:00:00.0000, 4.540387417617259E+08, -1.644524514437898E+08, -2.862726081028931E+07,
2459930.500000000, A.D. 2022-Dec-17 00:00:00.0000, 4.581395698090283E+08, -1.556728009548398E+08, -2.891762292782384E+07,
2459937.500000000, A.D. 2022-Dec-24 00:00:00.0000, 4.620452429032949E+08, -1.468266005401729E+08, -2.919564854366927E+07,
2459944.500000000, A.D. 2022-Dec-31 00:00:00.0000, 4.657552658807907E+08, -1.379179892390300E+08, -2.946129250601795E+07,
2459951.500000000, A.D. 2023-Jan-07 00:00:00.0000, 4.692692197378514E+08, -1.289510797383624E+08, -2.971451469603856E+07,
2459958.500000000, A.D. 2023-Jan-14 00:00:00.0000, 4.725867596687056E+08, -1.199299558253197E+08, -2.995527973692052E+07,
2459965.500000000, A.D. 2023-Jan-21 00:00:00.0000, 4.757076111325440E+08, -1.108586716657764E+08, -3.018355666539577E+07,
2459972.500000000, A.D. 2023-Jan-28 00:00:00.0000, 4.786315676156692E+08, -1.017412531007796E+08, -3.039931891805891E+07,
2459979.500000000, A.D. 2023-Feb-04 00:00:00.0000, 4.813584898789823E+08, -9.258169792795673E+07, -3.060254436576289E+07,
2459986.500000000, A.D. 2023-Feb-11 00:00:00.0000, 4.838883048966100E+08, -8.338397535673785E+07, -3.079321524714984E+07,
2459993.500000000, A.D. 2023-Feb-18 00:00:00.0000, 4.862210044242864E+08, -7.415202545690948E+07, -3.097131806276960E+07,
2460000.500000000, A.D. 2023-Feb-25 00:00:00.0000, 4.883566434620079E+08, -6.488975875948836E+07, -3.113684346708813E+07,
2460007.500000000, A.D. 2023-Mar-04 00:00:00.0000, 4.902953387142535E+08, -5.560105598877106E+07, -3.128978616614935E+07,
2460014.500000000, A.D. 2023-Mar-11 00:00:00.0000, 4.920372670768256E+08, -4.628976792280333E+07, -3.143014482332940E+07,
2460021.500000000, A.D. 2023-Mar-18 00:00:00.0000, 4.935826641973170E+08, -3.695971542945376E+07, -3.155792198135518E+07,
2460028.500000000, A.D. 2023-Mar-25 00:00:00.0000, 4.949318233118982E+08, -2.761468972303586E+07, -3.167312402287678E+07,
2460035.500000000, A.D. 2023-Apr-01 00:00:00.0000, 4.960850947814802E+08, -1.825845244548307E+07, -3.177576117611312E+07,
2460042.500000000, A.D. 2023-Apr-08 00:00:00.0000, 4.970428857107300E+08, -8.894734343538143E+06, -3.186584740867992E+07,
2460049.500000000, A.D. 2023-Apr-15 00:00:00.0000, 4.978056573139639E+08, 4.727663549991865E+05, -3.194340008543215E+07,
2460056.500000000, A.D. 2023-Apr-22 00:00:00.0000, 4.983739218377073E+08, 9.840382815307172E+06, -3.200843980567110E+07,
2460063.500000000, A.D. 2023-Apr-29 00:00:00.0000, 4.987482417731943E+08, 1.920447797441319E+07, -3.206099048641437E+07,
2460070.500000000, A.D. 2023-May-06 00:00:00.0000, 4.989292295972623E+08, 2.856144420866128E+07, -3.210107938464502E+07,
2460077.500000000, A.D. 2023-May-13 00:00:00.0000, 4.989175470644997E+08, 3.790770339856105E+07, -3.212873704202169E+07,
2460084.500000000, A.D. 2023-May-20 00:00:00.0000, 4.987139042844276E+08, 4.723970690188174E+07, -3.214399721381349E+07,
2460091.500000000, A.D. 2023-May-27 00:00:00.0000, 4.983190587766689E+08, 5.655393540738456E+07, -3.214689680241918E+07,
2460098.500000000, A.D. 2023-Jun-03 00:00:00.0000, 4.977338145610999E+08, 6.584689869695610E+07, -3.213747579886753E+07,
2460105.500000000, A.D. 2023-Jun-10 00:00:00.0000, 4.969590213062282E+08, 7.511513530409732E+07, -3.211577723586219E+07,
2460112.500000000, A.D. 2023-Jun-17 00:00:00.0000, 4.959955736243944E+08, 8.435521201020157E+07, -3.208184716571639E+07,
2460119.500000000, A.D. 2023-Jun-24 00:00:00.0000, 4.948444108331020E+08, 9.356372323537156E+07, -3.203573468824457E+07,
2460126.500000000, A.D. 2023-Jul-01 00:00:00.0000, 4.935065174339401E+08, 1.027372911529690E+08, -3.197749198430594E+07,
2460133.500000000, A.D. 2023-Jul-08 00:00:00.0000, 4.919829226335248E+08, 1.118725673522213E+08, -3.190717413426954E+07,
2460140.500000000, A.D. 2023-Jul-15 00:00:00.0000, 4.902746976305456E+08, 1.209662332213880E+08, -3.182483883566048E+07,
2460147.500000000, A.D. 2023-Jul-22 00:00:00.0000, 4.883829541906469E+08, 1.300149980175360E+08, -3.173054642773636E+07,
$$EOE